{"type":"way","id":33463194,"visible":true,"timestamp":"1970-01-01T00:00:00Z","nodes":[346895193,346895165],"tags":{"addr:city":"Челябинск","bridge":"yes","highway":"primary","lanes":"2","layer":"1","oneway":"yes","surface":"asphalt"}}
{"type":"way","id":92003841,"visible":true,"timestamp":"1970-01-01T00:00:00Z","nodes":[3304656252,1068819625,1068819630,1068825479,1068819645],"tags":{"addr:city":"Челябинск","addr:country":"RU","highway":"residential","name":"улица 9 Мая"}}
{"type":"way","id":156521542,"visible":true,"timestamp":"1970-01-01T00:00:00Z","nodes":[349015539,290767634],"tags":{"addr:city":"Челябинск","addr:country":"RU","addr:postcode":"454091","hgv":"destination","highway":"tertiary","lit":"yes","maxspeed":"60","name":"улица Коммуны","surface":"asphalt","trolley_wire":"yes"}}
{"type":"way","id":167598804,"visible":true,"timestamp":"1970-01-01T00:00:00Z","nodes":[346895165,4324554036,346895144,1034813496,1061189663,1034813493,1426816631,346894083,1860473219,1806456606,346894101,1860473218,346894671,1426816729],"tags":{"addr:city":"Челябинск","highway":"primary","lanes":"3","name":"Копейское шоссе","oneway":"yes","surface":"asphalt"}}
{"type":"way","id":168318758,"visible":true,"timestamp":"1970-01-01T00:00:00Z","nodes":[290767634,1549149972,1429779652,1881001201],"tags":{"addr:city":"Челябинск","addr:country":"RU","addr:postcode":"454091","hgv":"destination","highway":"tertiary","lanes":"5","lanes:forward":"2","lit":"yes","maxspeed":"60","name":"улица Коммуны","surface":"asphalt","trolley_wire":"yes","turn:lanes:backward":"left|left|right"}}
{"type":"way","id":168319371,"visible":true,"timestamp":"1970-01-01T00:00:00Z","nodes":[290761970,2054601341,1448251500],"tags":{"addr:city":"Челябинск","addr:country":"RU","addr:postcode":"454091","hgv":"no","highway":"tertiary","int_name":"ulitsa Kommuny","lanes":"5","lanes:forward":"2","lit":"yes","maxspeed":"60","name":"улица Коммуны","name:en":"ulitsa Kommuny","surface":"asphalt","trolley_wire":"removed","turn:lanes:backward":"left|left|through;right"}}
{"type":"way","id":170559878,"visible":true,"timestamp":"1970-01-01T00:00:00Z","nodes":[1448251500,2126191863,5108040992,365551999],"tags":{"addr:city":"Челябинск","addr:country":"RU","hgv":"no","highway":"tertiary","int_name":"ulitsa Kommuny","lanes":"4","lit":"yes","maxspeed":"60","name":"улица Коммуны","name:en":"ulitsa Kommuny","postal_code":"454091","surface":"asphalt","trolley_wire":"removed"}}
{"type":"way","id":177680231,"visible":true,"timestamp":"1970-01-01T00:00:00Z","nodes":[1881001201,1881001200,365464328,1845336102,1449582594,947067468,1429798792,2054601347,1827277136,1429801834],"tags":{"addr:city":"Челябинск","addr:country":"RU","addr:postcode":"454091","hgv":"destination","highway":"tertiary","int_name":"ulitsa Kommuny","lit":"yes","maxspeed":"60","name":"улица Коммуны","name:en":"ulitsa Kommuny","surface":"asphalt","trolley_wire":"yes"}}
{"type":"way","id":194946737,"visible":true,"timestamp":"1970-01-01T00:00:00Z","nodes":[1429801834,2054601344,290761970],"tags":{"addr:city":"Челябинск","addr:country":"RU","addr:postcode":"454091","hgv":"destination","highway":"tertiary","int_name":"ulitsa Kommuny","lit":"yes","maxspeed":"60","name":"улица Коммуны","name:en":"ulitsa Kommuny","surface":"asphalt","trolley_wire":"yes"}}
{"type":"way","id":219119372,"visible":true,"timestamp":"1970-01-01T00:00:00Z","nodes":[2163557809,279264147,279264146,1427636145,1850240173,1387249849,2034235386,279264529,1850249420,1427635553,279264518,3023193063,279264043],"tags":{"addr:city":"Челябинск","highway":"primary","lanes":"3","name":"Копейское шоссе","name:ru":"Копейское шоссе","oneway":"yes","surface":"asphalt","trolley_wire":"yes"}}
{"type":"way","id":263828855,"visible":true,"timestamp":"1970-01-01T00:00:00Z","nodes":[2694776187,2694776206,2694776244,2694776270,2694776271,2694776275,2694776280,2694776281,2694776282,2694776283,2694776284,4324554035,2694776285],"tags":{"addr:city":"Челябинск","highway":"primary","lanes":"3","name":"Копейское шоссе","oneway":"yes","surface":"asphalt"}}
{"type":"way","id":263828856,"visible":true,"timestamp":"1970-01-01T00:00:00Z","nodes":[2694776279,3023193066,2694776278,2694776276,2694776274,2694776273,2694776269,2694776268,2694776264,2694776226,2694776169,2694776153,2694776139,2694776128,2694776151,2694776152,2694776154,2694776187],"tags":{"addr:city":"Челябинск","highway":"primary","lanes":"3","name":"Копейское шоссе","name:ru":"Копейское шоссе","oneway":"yes","surface":"asphalt"}}
{"type":"way","id":263828857,"visible":true,"timestamp":"1970-01-01T00:00:00Z","nodes":[2694776285,2694776287],"tags":{"addr:city":"Челябинск","bridge":"yes","highway":"primary","lanes":"2","layer":"1","name":"Копейское шоссе","oneway":"yes","surface":"asphalt"}}
{"type":"way","id":263828858,"visible":true,"timestamp":"1970-01-01T00:00:00Z","nodes":[2694776287,2694776289,2694776290,2694776291],"tags":{"addr:city":"Челябинск","highway":"primary","lanes":"3","name":"Копейское шоссе","oneway":"yes","surface":"asphalt"}}
{"type":"way","id":263849200,"visible":true,"timestamp":"1970-01-01T00:00:00Z","nodes":[2694776291,2694776299,2694776312,2694776313],"tags":{"addr:city":"Челябинск","highway":"primary","lanes":"3","name":"Копейское шоссе","oneway":"yes","surface":"asphalt","trolley_wire":"yes"}}
{"type":"node","id":2694776285,"lat":55.12119070000001,"lon":61.524277700000006,"visible":true,"timestamp":"1970-01-01T00:00:00Z"}
{"type":"node","id":2694776287,"lat":55.1214207,"lon":61.517639800000005,"visible":true,"timestamp":"1970-01-01T00:00:00Z"}
